     2.11           N: GPS NAV DATA                         RINEX VERSION / TYPE
teqc  2019Feb25                         20221121 12:24:25UTCPGM / RUN BY / DATE
OSX ker:10.11.6|Core i5|gcc 4.3 -m64|OSX ker:10.10+|=+      COMMENT
    5.5879D-09  1.4901D-08 -5.9605D-08 -1.1921D-07          ION ALPHA
    8.3968D+04  9.8304D+04 -6.5536D+04 -5.2429D+05          ION BETA
    3.725290298462D-09 2.042810365310D-14   147456     1537 DELTA-UTC: A0,A1,T,W
                                                            END OF HEADER
17 09  6 21  8  0  0.0 6.572762504220D-05 2.273736754432D-12 0.000000000000D+00
    7.400000000000D+01 4.281250000000D+00 5.158429154994D-09 5.766037335171D-02
    2.775341272354D-07 4.550217767246D-03 5.485489964485D-06 5.153682405472D+03
    2.880000000000D+04 3.352761268616D-08-1.925438340750D+00 4.656612873077D-08
    9.593021346016D-01 2.759687500000D+02-2.631806119003D+00-8.146410759278D-09
    2.171519023912D-10 1.000000000000D+00 1.537000000000D+03 0.000000000000D+00
    2.000000000000D+00 0.000000000000D+00-1.024454832077D-08 7.400000000000D+01
    2.161800000000D+04 4.000000000000D+00
32 09  6 21  8  0  0.0 2.439301460981D-04-5.684341886081D-12 0.000000000000D+00
    8.400000000000D+01 1.800000000000D+02 4.110885520597D-09-1.895358421926D+00
    9.302049875259D-06 1.323214266449D-02 6.670132279396D-06 5.153809461594D+03
    2.880000000000D+04-1.136213541031D-07 2.365691321339D-01 2.942979335785D-07
    9.640740256214D-01 2.549062500000D+02-1.151069633162D+00-7.901043395886D-09
   -3.571577341961D-12 1.000000000000D+00 1.537000000000D+03 0.000000000000D+00
    2.000000000000D+00 0.000000000000D+00-3.259629011154D-09 8.400000000000D+01
    2.161800000000D+04 4.000000000000D+00
23 09  6 21  8  0  0.0 3.902134485543D-04 0.000000000000D+00 0.000000000000D+00
    5.600000000000D+01 1.618750000000D+01 4.476972198148D-09-1.085486532905D+00
    8.046627044678D-07 6.226556142792D-03-1.132488250732D-06 5.153598991394D+03
    2.880000000000D+04-1.266598701477D-07 1.204321647711D+00-1.341104507446D-07
    9.700986675205D-01 4.074375000000D+02 2.897715432267D+00-8.448566202408D-09
   -2.642967233051D-11 1.000000000000D+00 1.537000000000D+03 0.000000000000D+00
    2.000000000000D+00 0.000000000000D+00-2.002343535423D-08 5.600000000000D+01
    2.161800000000D+04 4.000000000000D+00
 2 09  6 21  7 59 44.0 1.570605672896D-04 1.250555214938D-12 0.000000000000D+00
    2.300000000000D+01 1.125000000000D+00 5.167715256083D-09-9.795505695273D-01
    1.043081283569D-07 9.068037732504D-03 9.816139936447D-06 5.153667551041D+03
    2.878400000000D+04-2.048909664154D-08-9.088005260012D-01-1.266598701477D-07
    9.410398084624D-01 1.804687500000D+02 2.846054107063D+00-8.173911904812D-09
   -5.814527912712D-10 1.000000000000D+00 1.537000000000D+03 0.000000000000D+00
    2.000000000000D+00 0.000000000000D+00-1.722946763039D-08 2.300000000000D+01
    2.161800000000D+04 4.000000000000D+00
30 09  6 21  8  0  0.0 1.552593894303D-04 2.728484105319D-12 0.000000000000D+00
    7.600000000000D+01-4.334375000000D+01 4.449828210349D-09 1.080740712549D+00
   -2.326443791389D-06 1.153320493177D-02 1.110509037971D-05 5.153585437775D+03
    2.880000000000D+04-2.142041921616D-07-3.032777999514D+00-1.341104507446D-07
    9.526607717908D-01 1.613125000000D+02 1.420838649507D+00-8.016048186297D-09
    6.596703350602D-10 1.000000000000D+00 1.537000000000D+03 0.000000000000D+00
    2.000000000000D+00 0.000000000000D+00-8.381903171539D-09 7.600000000000D+01
    2.161800000000D+04 4.000000000000D+00
31 09  6 21  8  0  0.0-6.266450509429D-05-6.821210263297D-13 0.000000000000D+00
    7.300000000000D+01-1.583437500000D+02 3.887661936724D-09-2.850527931450D+00
   -8.143484592438D-06 7.007917505689D-03 6.861984729767D-06 5.153738601685D+03
    2.880000000000D+04 8.754432201386D-08 2.244728974429D+00-1.862645149231D-09
    9.731308095471D-01 2.542187500000D+02-1.137001150833D+00-7.710678323559D-09
   -2.117945363783D-10 1.000000000000D+00 1.537000000000D+03 0.000000000000D+00
    2.000000000000D+00 0.000000000000D+00-1.303851604462D-08 7.300000000000D+01
    2.161800000000D+04 4.000000000000D+00
13 09  6 21  8  0  0.0 2.998635172844D-04 7.958078640513D-13 0.000000000000D+00
    1.900000000000D+01 7.656250000000D+00 3.994809256983D-09-3.600447108617D-01
    3.892928361893D-07 4.149108892307D-03-8.419156074524D-07 5.153691104889D+03
    2.880000000000D+04-1.192092895508D-07 1.256954906429D+00 8.940696716309D-08
    9.945972934724D-01 4.134062500000D+02 1.599937987016D+00-8.268201546639D-09
   -6.535986535788D-11 1.000000000000D+00 1.537000000000D+03 0.000000000000D+00
    2.000000000000D+00 0.000000000000D+00-1.117587089539D-08 1.900000000000D+01
    2.191200000000D+04 4.000000000000D+00
29 09  6 21  7 59 44.0 3.219582140446D-05 3.637978807092D-12 0.000000000000D+00
    4.000000000000D+00 4.531250000000D+00 5.139856952816D-09 2.647939523367D+00
   -2.607703208923D-08 3.411234589294D-03 5.275011062622D-06 5.153649709702D+03
    2.878400000000D+04 1.415610313416D-07-1.917232862501D+00-5.401670932770D-08
    9.595289834565D-01 2.789062500000D+02-1.311357631858D+00-8.154982544899D-09
    1.382200431339D-10 1.000000000000D+00 1.537000000000D+03 0.000000000000D+00
    2.000000000000D+00 0.000000000000D+00-8.847564458847D-09 4.000000000000D+00
    2.605200000000D+04 4.000000000000D+00
10 09  6 21  7 59 44.0-1.783063635230D-05-5.684341886081D-13 0.000000000000D+00
    4.600000000000D+01 1.421875000000D+02 4.493401453921D-09-1.959895635234D-02
    7.534399628639D-06 8.558365982026D-03 8.124858140945D-06 5.153627244949D+03
    2.878400000000D+04 1.862645149231D-08 1.753048454648D-01 7.078051567078D-08
    9.583848337638D-01 2.173125000000D+02 6.274931938845D-01-8.138910446860D-09
   -8.678932940965D-11 1.000000000000D+00 1.537000000000D+03 0.000000000000D+00
    2.000000000000D+00 0.000000000000D+00-2.793967723846D-09 4.600000000000D+01
    2.644200000000D+04 4.000000000000D+00
25 09  6 21  7 59 44.0 4.724571481347D-04 1.762145984685D-11 0.000000000000D+00
    7.200000000000D+01-1.747812500000D+02 3.985880313628D-09 1.786593864017D+00
   -9.052455425262D-06 1.133996155113D-02 5.260109901428D-06 5.153653841019D+03
    2.878400000000D+04 3.054738044739D-07 2.152266419267D+00-1.676380634308D-08
    9.699323030136D-01 2.821250000000D+02-1.207975736192D+00-7.861398887390D-09
   -2.164375869228D-10 1.000000000000D+00 1.537000000000D+03 0.000000000000D+00
    2.000000000000D+00 0.000000000000D+00-7.450580596924D-09 7.200000000000D+01
    2.791200000000D+04 4.000000000000D+00
 4 09  6 21 10  0  0.0-1.420471817255D-04-1.602984411875D-11 0.000000000000D+00
    6.600000000000D+01 1.465625000000D+01 5.051281834735D-09 2.946117987491D+00
    7.264316082001D-07 8.592952042818D-03 1.025386154652D-05 5.153756397247D+03
    3.600000000000D+04-9.499490261078D-08-8.905157894199D-01-1.508742570877D-07
    9.402583746783D-01 1.718750000000D+02 4.907250996873D-01-7.848898366693D-09
   -6.643133856047D-10 1.000000000000D+00 1.537000000000D+03 0.000000000000D+00
    2.000000000000D+00 0.000000000000D+00-6.053596735001D-09 6.600000000000D+01
    2.881800000000D+04 4.000000000000D+00
 2 09  6 21 10  0  0.0 1.570694148540D-04 1.250555214938D-12 0.000000000000D+00
    3.300000000000D+01 9.187500000000D+00 5.225574809023D-09 7.290935157286D-02
    4.805624485016D-07 9.067056933418D-03 9.775161743164D-06 5.153665374756D+03
    3.600000000000D+04 5.029141902924D-08-9.088594581931D-01-1.192092895508D-07
    9.410353699690D-01 1.813125000000D+02 2.846118185801D+00-8.198912946205D-09
   -6.168114069566D-10 1.000000000000D+00 1.537000000000D+03 0.000000000000D+00
    2.000000000000D+00 0.000000000000D+00-1.722946763039D-08 3.300000000000D+01
    2.881800000000D+04 4.000000000000D+00
13 09  6 21 10  0  0.0 2.998691052198D-04 7.958078640513D-13 0.000000000000D+00
    2.000000000000D+01 3.687500000000D+00 4.012667143693D-09 6.900578552681D-01
    1.005828380585D-07 4.149690154009D-03-5.662441253662D-07 5.153692268372D+03
    3.600000000000D+04-1.080334186554D-07 1.256895795761D+00-3.725290298462D-08
    9.945963879261D-01 4.102187500000D+02 1.600001568362D+00-8.271773123981D-09
   -1.557207721095D-10 1.000000000000D+00 1.537000000000D+03 0.000000000000D+00
    2.000000000000D+00 0.000000000000D+00-1.117587089539D-08 2.000000000000D+01
    2.881800000000D+04 4.000000000000D+00
10 09  6 21 10  0  0.0-1.783482730389D-05-5.684341886081D-13 0.000000000000D+00
    8.400000000000D+01 1.623750000000D+02 4.437684847386D-09 1.032747415972D+00
    8.741393685341D-06 8.561528520659D-03 9.046867489815D-06 5.153634052277D+03
    3.600000000000D+04 3.725290298462D-09 1.752461502656D-01 9.499490261078D-08
    9.583841944686D-01 2.018750000000D+02 6.276873333541D-01-8.132124449911D-09
   -8.428922527028D-11 1.000000000000D+00 1.537000000000D+03 0.000000000000D+00
    2.000000000000D+00 0.000000000000D+00-2.793967723846D-09 8.400000000000D+01
    2.881800000000D+04 4.000000000000D+00
23 09  6 21 10  0  0.0 3.902129828930D-04 0.000000000000D+00 0.000000000000D+00
    5.700000000000D+01 1.437500000000D+01 4.577333521457D-09-3.518608808752D-02
    4.973262548447D-07 6.226596306078D-03-9.201467037201D-07 5.153599519730D+03
    3.600000000000D+04 4.097819328308D-08 1.204261055107D+00-8.009374141693D-08
    9.700976859025D-01 4.018750000000D+02 2.897640580601D+00-8.547856052515D-09
   -1.350056235261D-10 1.000000000000D+00 1.537000000000D+03 0.000000000000D+00
    2.000000000000D+00 0.000000000000D+00-2.002343535423D-08 5.700000000000D+01
    2.881800000000D+04 4.000000000000D+00
